IRIDIUM 112             
1 41925U 17003J   25226.50090533 -.00000006  00000+0 -90837-5 0  9993
2 41925  86.3964 216.3955 0002214  86.2281 273.9168 14.34217469449314
IRIDIUM 111             
1 41926U 17003K   25226.90683008  .00000022  00000+0  63135-6 0  9991
2 41926  86.3961 216.2893 0002230  92.1584 267.9868 14.34217517449350
IRIDIUM 113             
1 42803U 17039A   25226.53794930  .00000131  00000+0  39679-4 0  9996
2 42803  86.3930  90.3684 0002081  81.1223 279.0208 14.34219329427230
IRIDIUM 123             
1 42804U 17039B   25226.85850586  .00000005  00000+0 -51266-5 0  9990
2 42804  86.3983 121.7195 0001826  91.9154 268.2251 14.34217393426048
IRIDIUM 120             
1 42805U 17039C   25226.60137951  .00000038  00000+0  64392-5 0  9997
2 42805  86.3920  90.1638 0002258  93.6931 266.4522 14.34217161427239
IRIDIUM 115             
1 42806U 17039D   25226.53760065  .00000323  00000+0  89970-4 0  9993
2 42806  86.4457  90.2774 0001863 105.4026 254.7381 14.43280919430032
IRIDIUM 118             
1 42807U 17039E   25226.47160247  .00000214  00000+0  69429-4 0  9999
2 42807  86.3984 121.8809 0002105  79.1827 280.9605 14.34220303425982
IRIDIUM 117             
1 42808U 17039F   25226.69994102 -.00000033  00000+0 -18858-4 0  9990
2 42808  86.3983 121.7458 0001788  86.4834 273.6566 14.34217217426049
